{"type": "FeatureCollection", "features": [ {"type": "Feature", "properties": {"norad_id": 40534, "name": "GPS BIIF-9  (PRN 26)", "group": "gps-ops", "lat": -52.02205082257023, "lon": 105.25102032839112, "alt_km": 20400.484944141335, "timestamp": "2025-12-14T22:38:41.016995+00:00", "meta": {"OBJECT_NAME": "GPS BIIF-9  (PRN 26)", "OBJECT_ID": "2015-013A", "EPOCH": "2025-12-13T14:04:23.865312", "MEAN_MOTION": 2.00562579, "ECCENTRICITY": 0.01070971, "INCLINATION": 53.1976, "RA_OF_ASC_NODE": 211.8551, "ARG_OF_PERICENTER": 38.5041, "MEAN_ANOMALY": 322.3346, "EPHEMERIS_TYPE": 0, "CLASSIFICATION_TYPE": "U", "NORAD_CAT_ID": 40534, "ELEMENT_SET_NO": 999, "REV_AT_EPOCH": 7810, "BSTAR": 0, "MEAN_MOTION_DOT": 4.8e-07, "MEAN_MOTION_DDOT": 0}, "tle": {"line1": "1 40534U 15013A   25347.58638733  .00000048  00000+0  00000+0 0  9990", "line2": "2 40534  53.1976 211.8551 0107097  38.5041 322.3346  2.00562579 78102"}}, "geometry": {"type": "Point", "coordinates": [105.25102032839112, -52.02205082257023]}}, {"type": "Feature", "properties": {"norad_id": 40730, "name": "GPS BIIF-10 (PRN 08)", "group": "gps-ops", "lat": 27.542709013446498, "lon": 72.52862909312924, "alt_km": 20316.319253233014, "timestamp": "2025-12-14T22:38:41.017006+00:00", "meta": {"OBJECT_NAME": "GPS BIIF-10 (PRN 08)", "OBJECT_ID": "2015-033A", "EPOCH": "2025-12-13T17:56:39.615936", "MEAN_MOTION": 2.00565613, "ECCENTRICITY": 0.0111033, "INCLINATION": 54.1297, "RA_OF_ASC_NODE": 274.7313, "ARG_OF_PERICENTER": 26.8305, "MEAN_ANOMALY": 333.7529, "EPHEMERIS_TYPE": 0, "CLASSIFICATION_TYPE": "U", "NORAD_CAT_ID": 40730, "ELEMENT_SET_NO": 999, "REV_AT_EPOCH": 7627, "BSTAR": 0, "MEAN_MOTION_DOT": -7.4e-07, "MEAN_MOTION_DDOT": 0}, "tle": {"line1": "1 40730U 15033A   25347.74768074 -.00000074  00000+0  00000+0 0  9990", "line2": "2 40730  54.1297 274.7313 0111033  26.8305 333.7529  2.00565613 76276"}}, "geometry": {"type": "Point", "coordinates": [72.52862909312924, 27.542709013446498]}}, {"type": "Feature", "properties": {"norad_id": 41019, "name": "GPS BIIF-11 (PRN 10)", "group": "gps-ops", "lat": 55.848941247738004, "lon": 143.52552322797177, "alt_km": 20368.3507763471, "timestamp": "2025-12-14T22:38:41.017017+00:00", "meta": {"OBJECT_NAME": "GPS BIIF-11 (PRN 10)", "OBJECT_ID": "2015-062A", "EPOCH": "2025-12-12T19:26:17.014560", "MEAN_MOTION": 2.00567164, "ECCENTRICITY": 0.01108438, "INCLINATION": 56.8322, "RA_OF_ASC_NODE": 37.9995, "ARG_OF_PERICENTER": 229.9503, "MEAN_ANOMALY": 129.1214, "EPHEMERIS_TYPE": 0, "CLASSIFICATION_TYPE": "U", "NORAD_CAT_ID": 41019, "ELEMENT_SET_NO": 999, "REV_AT_EPOCH": 7409, "BSTAR": 0, "MEAN_MOTION_DOT": -9.6e-07, "MEAN_MOTION_DDOT": 0}, "tle": {"line1": "1 41019U 15062A   25346.80991915 -.00000096  00000+0  00000+0 0  9995", "line2": "2 41019  56.8322  37.9995 0110843 229.9503 129.1214  2.00567164 74093"}}, "geometry": {"type": "Point", "coordinates": [143.52552322797177, 55.848941247738004]}}, {"type": "Feature", "properties": {"norad_id": 41328, "name": "GPS BIIF-12 (PRN 32)", "group": "gps-ops", "lat": 32.288066102160606, "lon": 122.58509317174511, "alt_km": 20403.20143875023, "timestamp": "2025-12-14T22:38:41.017028+00:00", "meta": {"OBJECT_NAME": "GPS BIIF-12 (PRN 32)", "OBJECT_ID": "2016-007A", "EPOCH": "2025-12-13T09:23:04.524576", "MEAN_MOTION": 2.00560713, "ECCENTRICITY": 0.00921862, "INCLINATION": 55.4066, "RA_OF_ASC_NODE": 96.8311, "ARG_OF_PERICENTER": 243.5856, "MEAN_ANOMALY": 115.4531, "EPHEMERIS_TYPE": 0, "CLASSIFICATION_TYPE": "U", "NORAD_CAT_ID": 41328, "ELEMENT_SET_NO": 999, "REV_AT_EPOCH": 7211, "BSTAR": 0, "MEAN_MOTION_DOT": -1.9e-07, "MEAN_MOTION_DDOT": 0}, "tle": {"line1": "1 41328U 16007A   25347.39102459 -.00000019  00000+0  00000+0 0  9995", "line2": "2 41328  55.4066  96.8311 0092186 243.5856 115.4531  2.00560713 72118"}}, "geometry": {"type": "Point", "coordinates": [122.58509317174511, 32.288066102160606]}}, {"type": "Feature", "properties": {"norad_id": 43873, "name": "GPS BIII-1  (PRN 04)", "group": "gps-ops", "lat": -48.363148705444296, "lon": 49.02245935377429, "alt_km": 20205.599350445238, "timestamp": "2025-12-14T22:38:41.017044+00:00", "meta": {"OBJECT_NAME": "GPS BIII-1  (PRN 04)", "OBJECT_ID": "2018-109A", "EPOCH": "2025-12-12T07:06:10.304640", "MEAN_MOTION": 2.00553613, "ECCENTRICITY": 0.0037314, "INCLINATION": 55.5671, "RA_OF_ASC_NODE": 99.5642, "ARG_OF_PERICENTER": 194.9554, "MEAN_ANOMALY": 348.038, "EPHEMERIS_TYPE": 0, "CLASSIFICATION_TYPE": "U", "NORAD_CAT_ID": 43873, "ELEMENT_SET_NO": 999, "REV_AT_EPOCH": 5132, "BSTAR": 0, "MEAN_MOTION_DOT": -2e-08, "MEAN_MOTION_DDOT": 0}, "tle": {"line1": "1 43873U 18109A   25346.29595260 -.00000002  00000+0  00000+0 0  9993", "line2": "2 43873  55.5671  99.5642 0037314 194.9554 348.0380  2.00553613 51328"}}, "geometry": {"type": "Point", "coordinates": [49.02245935377429, -48.363148705444296]}}, {"type": "Feature", "properties": {"norad_id": 44506, "name": "GPS BIII-2  (PRN 18)", "group": "gps-ops", "lat": -9.567874106109265, "lon": 165.06035475514977, "alt_km": 20031.513858805793, "timestamp": "2025-12-14T22:38:41.017067+00:00", "meta": {"OBJECT_NAME": "GPS BIII-2  (PRN 18)", "OBJECT_ID": "2019-056A", "EPOCH": "2025-12-11T10:12:28.532736", "MEAN_MOTION": 2.00566237, "ECCENTRICITY": 0.00577517, "INCLINATION": 55.7218, "RA_OF_ASC_NODE": 338.6041, "ARG_OF_PERICENTER": 198.4885, "MEAN_ANOMALY": 332.8185, "EPHEMERIS_TYPE": 0, "CLASSIFICATION_TYPE": "U", "NORAD_CAT_ID": 44506, "ELEMENT_SET_NO": 999, "REV_AT_EPOCH": 4630, "BSTAR": 0, "MEAN_MOTION_DOT": -8.7e-07, "MEAN_MOTION_DDOT": 0}, "tle": {"line1": "1 44506U 19056A   25345.42533024 -.00000087  00000+0  00000+0 0  9996", "line2": "2 44506  55.7218 338.6041 0057751 198.4885 332.8185  2.00566237 46306"}}, "geometry": {"type": "Point", "coordinates": [165.06035475514977, -9.567874106109265]}}, {"type": "Feature", "properties": {"norad_id": 45854, "name": "GPS BIII-3  (PRN 23)", "group": "gps-ops", "lat": 36.1348764420575, "lon": -172.71883240712722, "alt_km": 20118.3135740339, "timestamp": "2025-12-14T22:38:41.017080+00:00", "meta": {"OBJECT_NAME": "GPS BIII-3  (PRN 23)", "OBJECT_ID": "2020-041A", "EPOCH": "2025-12-11T05:23:02.925024", "MEAN_MOTION": 2.00561914, "ECCENTRICITY": 0.006046, "INCLINATION": 56.5461, "RA_OF_ASC_NODE": 36.2442, "ARG_OF_PERICENTER": 203.3747, "MEAN_ANOMALY": 126.9066, "EPHEMERIS_TYPE": 0, "CLASSIFICATION_TYPE": "U", "NORAD_CAT_ID": 45854, "ELEMENT_SET_NO": 999, "REV_AT_EPOCH": 4026, "BSTAR": 0, "MEAN_MOTION_DOT": -9.4e-07, "MEAN_MOTION_DDOT": 0}, "tle": {"line1": "1 45854U 20041A   25345.22433941 -.00000094  00000+0  00000+0 0  9992", "line2": "2 45854  56.5461  36.2442 0060460 203.3747 126.9066  2.00561914 40268"}}, "geometry": {"type": "Point", "coordinates": [-172.71883240712722, 36.1348764420575]}}, {"type": "Feature", "properties": {"norad_id": 46826, "name": "GPS BIII-4  (PRN 14)", "group": "gps-ops", "lat": 51.08495653566305, "lon": -25.821954632725813, "alt_km": 20197.30754867067, "timestamp": "2025-12-14T22:38:41.017091+00:00", "meta": {"OBJECT_NAME": "GPS BIII-4  (PRN 14)", "OBJECT_ID": "2020-078A", "EPOCH": "2025-12-14T01:09:53.243424", "MEAN_MOTION": 2.00566845, "ECCENTRICITY": 0.00646944, "INCLINATION": 54.0148, "RA_OF_ASC_NODE": 218.2878, "ARG_OF_PERICENTER": 203.3789, "MEAN_ANOMALY": 337.0956, "EPHEMERIS_TYPE": 0, "CLASSIFICATION_TYPE": "U", "NORAD_CAT_ID": 46826, "ELEMENT_SET_NO": 999, "REV_AT_EPOCH": 3779, "BSTAR": 0, "MEAN_MOTION_DOT": 4.1e-07, "MEAN_MOTION_DDOT": 0}, "tle": {"line1": "1 46826U 20078A   25348.04853291  .00000041  00000+0  00000+0 0  9990", "line2": "2 46826  54.0148 218.2878 0064694 203.3789 337.0956  2.00566845 37792"}}, "geometry": {"type": "Point", "coordinates": [-25.821954632725813, 51.08495653566305]}}, {"type": "Feature", "properties": {"norad_id": 48859, "name": "GPS BIII-5  (PRN 11)", "group": "gps-ops", "lat": -49.52512617657164, "lon": -74.55682880637298, "alt_km": 20154.252130888748, "timestamp": "2025-12-14T22:38:41.017103+00:00", "meta": {"OBJECT_NAME": "GPS BIII-5  (PRN 11)", "OBJECT_ID": "2021-054A", "EPOCH": "2025-12-08T04:14:32.423424", "MEAN_MOTION": 2.00553627, "ECCENTRICITY": 0.0024678, "INCLINATION": 55.2581, "RA_OF_ASC_NODE": 340.1367, "ARG_OF_PERICENTER": 233.3994, "MEAN_ANOMALY": 212.8593, "EPHEMERIS_TYPE": 0, "CLASSIFICATION_TYPE": "U", "NORAD_CAT_ID": 48859, "ELEMENT_SET_NO": 999, "REV_AT_EPOCH": 3292, "BSTAR": 0, "MEAN_MOTION_DOT": -8.6e-07, "MEAN_MOTION_DDOT": 0}, "tle": {"line1": "1 48859U 21054A   25342.17676416 -.00000086  00000+0  00000+0 0  9993", "line2": "2 48859  55.2581 340.1367 0024678 233.3994 212.8593  2.00553627 32922"}}, "geometry": {"type": "Point", "coordinates": [-74.55682880637298, -49.52512617657164]}}, {"type": "Feature", "properties": {"norad_id": 55268, "name": "GPS BIII-6  (PRN 28)", "group": "gps-ops", "lat": -20.786448585855663, "lon": 140.38235039592487, "alt_km": 20176.68476444968, "timestamp": "2025-12-14T22:38:41.017114+00:00", "meta": {"OBJECT_NAME": "GPS BIII-6  (PRN 28)", "OBJECT_ID": "2023-009A", "EPOCH": "2025-12-13T12:37:03.021024", "MEAN_MOTION": 2.00555696, "ECCENTRICITY": 0.00037118, "INCLINATION": 55.1051, "RA_OF_ASC_NODE": 155.8142, "ARG_OF_PERICENTER": 357.4368, "MEAN_ANOMALY": 33.2544, "EPHEMERIS_TYPE": 0, "CLASSIFICATION_TYPE": "U", "NORAD_CAT_ID": 55268, "ELEMENT_SET_NO": 999, "REV_AT_EPOCH": 2152, "BSTAR": 0, "MEAN_MOTION_DOT": 1e-06, "MEAN_MOTION_DDOT": 0}, "tle": {"line1": "1 55268U 23009A   25347.52572941  .00000100  00000+0  00000+0 0  9995", "line2": "2 55268  55.1051 155.8142 0003711 357.4368  33.2544  2.00555696 21528"}}, "geometry": {"type": "Point", "coordinates": [140.38235039592487, -20.786448585855663]}}]}